[{"OBJECT_NAME":"STARLINK-4088","OBJECT_ID":"2022-083Z","EPOCH":"2023-09-07T21:00:34.137504","MEAN_MOTION":15.08848325,"ECCENTRICITY":0.0001328,"INCLINATION":53.2176,"RA_OF_ASC_NODE":306.3945,"ARG_OF_PERICENTER":87.9733,"MEAN_ANOMALY":272.1412,"EPHEMERIS_TYPE":0,"CLASSIFICATION_TYPE":"U","NORAD_CAT_ID":53155,"ELEMENT_SET_NO":999,"REV_AT_EPOCH":6403,"BSTAR":9.3685e-5,"MEAN_MOTION_DOT":1.204e-5,"MEAN_MOTION_DDOT":0},{"OBJECT_NAME":"STARLINK-4087","OBJECT_ID":"2022-083AA","EPOCH":"2023-09-08T03:06:12.178368","MEAN_MOTION":15.08837485,"ECCENTRICITY":0.0001228,"INCLINATION":53.2166,"RA_OF_ASC_NODE":305.126,"ARG_OF_PERICENTER":85.764,"MEAN_ANOMALY":274.3493,"EPHEMERIS_TYPE":0,"CLASSIFICATION_TYPE":"U","NORAD_CAT_ID":53156,"ELEMENT_SET_NO":999,"REV_AT_EPOCH":6407,"BSTAR":2.529e-5,"MEAN_MOTION_DOT":1.15e-6,"MEAN_MOTION_DDOT":0},{"OBJECT_NAME":"STARLINK-4093","OBJECT_ID":"2022-083AB","EPOCH":"2023-09-07T12:53:03.034752","MEAN_MOTION":15.08840996,"ECCENTRICITY":0.0001262,"INCLINATION":53.2179,"RA_OF_ASC_NODE":307.9123,"ARG_OF_PERICENTER":91.4198,"MEAN_ANOMALY":268.6939,"EPHEMERIS_TYPE":0,"CLASSIFICATION_TYPE":"U","NORAD_CAT_ID":53157,"ELEMENT_SET_NO":999,"REV_AT_EPOCH":6335,"BSTAR":7.1857e-5,"MEAN_MOTION_DOT":8.56e-6,"MEAN_MOTION_DDOT":0},{"OBJECT_NAME":"STARLINK-4054","OBJECT_ID":"2022-083AC","EPOCH":"2023-09-07T16:19:43.065984","MEAN_MOTION":15.08841871,"ECCENTRICITY":0.0001424,"INCLINATION":53.2157,"RA_OF_ASC_NODE":307.2703,"ARG_OF_PERICENTER":98.4189,"MEAN_ANOMALY":261.6965,"EPHEMERIS_TYPE":0,"CLASSIFICATION_TYPE":"U","NORAD_CAT_ID":53158,"ELEMENT_SET_NO":999,"REV_AT_EPOCH":6337,"BSTAR":2.2125e-5,"MEAN_MOTION_DOT":6.4e-7,"MEAN_MOTION_DDOT":0},{"OBJECT_NAME":"STARLINK-4111","OBJECT_ID":"2022-083AD","EPOCH":"2023-09-07T12:42:26.599392","MEAN_MOTION":15.08842812,"ECCENTRICITY":0.000153,"INCLINATION":53.2158,"RA_OF_ASC_NODE":307.9475,"ARG_OF_PERICENTER":71.2889,"MEAN_ANOMALY":288.8269,"EPHEMERIS_TYPE":0,"CLASSIFICATION_TYPE":"U","NORAD_CAT_ID":53159,"ELEMENT_SET_NO":999,"REV_AT_EPOCH":6398,"BSTAR":2.8151e-5,"MEAN_MOTION_DOT":1.6e-6,"MEAN_MOTION_DDOT":0},{"OBJECT_NAME":"STARLINK-4096","OBJECT_ID":"2022-083AE","EPOCH":"2023-09-07T14:33:44.108928","MEAN_MOTION":15.08841644,"ECCENTRICITY":0.0001085,"INCLINATION":53.2159,"RA_OF_ASC_NODE":307.5996,"ARG_OF_PERICENTER":98.8871,"MEAN_ANOMALY":261.2244,"EPHEMERIS_TYPE":0,"CLASSIFICATION_TYPE":"U","NORAD_CAT_ID":53160,"ELEMENT_SET_NO":999,"REV_AT_EPOCH":6336,"BSTAR":4.5167e-5,"MEAN_MOTION_DOT":4.31e-6,"MEAN_MOTION_DDOT":0},{"OBJECT_NAME":"STARLINK-4055","OBJECT_ID":"2022-083AF","EPOCH":"2023-09-07T14:01:56.207712","MEAN_MOTION":15.08839724,"ECCENTRICITY":0.000131,"INCLINATION":53.2167,"RA_OF_ASC_NODE":307.6995,"ARG_OF_PERICENTER":95.2222,"MEAN_ANOMALY":264.892,"EPHEMERIS_TYPE":0,"CLASSIFICATION_TYPE":"U","NORAD_CAT_ID":53161,"ELEMENT_SET_NO":999,"REV_AT_EPOCH":6336,"BSTAR":-7.8898e-6,"MEAN_MOTION_DOT":-4.13e-6,"MEAN_MOTION_DDOT":0},{"OBJECT_NAME":"STARLINK-4114","OBJECT_ID":"2022-083AG","EPOCH":"2023-09-08T03:07:35.972544","MEAN_MOTION":15.08836994,"ECCENTRICITY":0.0001437,"INCLINATION":53.2162,"RA_OF_ASC_NODE":305.2581,"ARG_OF_PERICENTER":86.8514,"MEAN_ANOMALY":273.2643,"EPHEMERIS_TYPE":0,"CLASSIFICATION_TYPE":"U","NORAD_CAT_ID":53162,"ELEMENT_SET_NO":999,"REV_AT_EPOCH":6407,"BSTAR":0.00021386,"MEAN_MOTION_DOT":3.117e-5,"MEAN_MOTION_DDOT":0},{"OBJECT_NAME":"STARLINK-4104","OBJECT_ID":"2022-083AH","EPOCH":"2023-09-08T06:00:02.000160","MEAN_MOTION":15.07234465,"ECCENTRICITY":0.0001258,"INCLINATION":53.2166,"RA_OF_ASC_NODE":304.7346,"ARG_OF_PERICENTER":80.2074,"MEAN_ANOMALY":317.7616,"EPHEMERIS_TYPE":0,"CLASSIFICATION_TYPE":"U","NORAD_CAT_ID":53163,"ELEMENT_SET_NO":999,"REV_AT_EPOCH":6409,"BSTAR":-0.0023123,"MEAN_MOTION_DOT":-0.00035335,"MEAN_MOTION_DDOT":0},{"OBJECT_NAME":"STARLINK-4116","OBJECT_ID":"2022-083AJ","EPOCH":"2023-09-07T09:21:04.439808","MEAN_MOTION":15.08836853,"ECCENTRICITY":0.0001419,"INCLINATION":53.2169,"RA_OF_ASC_NODE":308.5718,"ARG_OF_PERICENTER":100.835,"MEAN_ANOMALY":259.2802,"EPHEMERIS_TYPE":0,"CLASSIFICATION_TYPE":"U","NORAD_CAT_ID":53164,"ELEMENT_SET_NO":999,"REV_AT_EPOCH":6333,"BSTAR":-5.0354e-5,"MEAN_MOTION_DOT":-1.089e-5,"MEAN_MOTION_DDOT":0},{"OBJECT_NAME":"STARLINK-4090","OBJECT_ID":"2022-083AK","EPOCH":"2023-09-07T12:10:39.277920","MEAN_MOTION":15.08840019,"ECCENTRICITY":0.0001333,"INCLINATION":53.2163,"RA_OF_ASC_NODE":308.0459,"ARG_OF_PERICENTER":99.3124,"MEAN_ANOMALY":260.8019,"EPHEMERIS_TYPE":0,"CLASSIFICATION_TYPE":"U","NORAD_CAT_ID":53165,"ELEMENT_SET_NO":999,"REV_AT_EPOCH":6335,"BSTAR":-3.6742e-5,"MEAN_MOTION_DOT":-8.73e-6,"MEAN_MOTION_DDOT":0},{"OBJECT_NAME":"STARLINK-4110","OBJECT_ID":"2022-083AL","EPOCH":"2023-09-07T13:56:37.967136","MEAN_MOTION":15.08841145,"ECCENTRICITY":0.0001379,"INCLINATION":53.2167,"RA_OF_ASC_NODE":307.7157,"ARG_OF_PERICENTER":83.6094,"MEAN_ANOMALY":276.5055,"EPHEMERIS_TYPE":0,"CLASSIFICATION_TYPE":"U","NORAD_CAT_ID":53166,"ELEMENT_SET_NO":999,"REV_AT_EPOCH":6336,"BSTAR":1.6022e-5,"MEAN_MOTION_DOT":-3.3e-7,"MEAN_MOTION_DDOT":0},{"OBJECT_NAME":"STARLINK-3683","OBJECT_ID":"2022-083AM","EPOCH":"2023-09-07T12:36:28.939680","MEAN_MOTION":15.0884364,"ECCENTRICITY":0.0001403,"INCLINATION":53.2152,"RA_OF_ASC_NODE":292.954,"ARG_OF_PERICENTER":84.323,"MEAN_ANOMALY":275.7922,"EPHEMERIS_TYPE":0,"CLASSIFICATION_TYPE":"U","NORAD_CAT_ID":53167,"ELEMENT_SET_NO":999,"REV_AT_EPOCH":6355,"BSTAR":0.00014055,"MEAN_MOTION_DOT":1.95e-5,"MEAN_MOTION_DDOT":0},{"OBJECT_NAME":"STARLINK-4105","OBJECT_ID":"2022-083AN","EPOCH":"2023-09-07T15:26:43.995264","MEAN_MOTION":15.08826117,"ECCENTRICITY":0.0001494,"INCLINATION":53.2178,"RA_OF_ASC_NODE":307.435,"ARG_OF_PERICENTER":91.2267,"MEAN_ANOMALY":268.8897,"EPHEMERIS_TYPE":0,"CLASSIFICATION_TYPE":"U","NORAD_CAT_ID":53168,"ELEMENT_SET_NO":999,"REV_AT_EPOCH":6337,"BSTAR":0.00036095,"MEAN_MOTION_DOT":5.459e-5,"MEAN_MOTION_DDOT":0},{"OBJECT_NAME":"STARLINK-4117","OBJECT_ID":"2022-083AP","EPOCH":"2023-09-08T02:23:14.165664","MEAN_MOTION":15.08758683,"ECCENTRICITY":0.0001932,"INCLINATION":53.2188,"RA_OF_ASC_NODE":290.6489,"ARG_OF_PERICENTER":97.9198,"MEAN_ANOMALY":262.2014,"EPHEMERIS_TYPE":0,"CLASSIFICATION_TYPE":"U","NORAD_CAT_ID":53169,"ELEMENT_SET_NO":999,"REV_AT_EPOCH":6427,"BSTAR":0.0011802,"MEAN_MOTION_DOT":0.00018503,"MEAN_MOTION_DDOT":0},{"OBJECT_NAME":"STARLINK-4095","OBJECT_ID":"2022-083AQ","EPOCH":"2023-09-07T12:56:20.798304","MEAN_MOTION":15.08846277,"ECCENTRICITY":0.0001497,"INCLINATION":53.2184,"RA_OF_ASC_NODE":302.8551,"ARG_OF_PERICENTER":92.028,"MEAN_ANOMALY":268.0884,"EPHEMERIS_TYPE":0,"CLASSIFICATION_TYPE":"U","NORAD_CAT_ID":53170,"ELEMENT_SET_NO":999,"REV_AT_EPOCH":6342,"BSTAR":4.6866e-5,"MEAN_MOTION_DOT":4.58e-6,"MEAN_MOTION_DDOT":0},{"OBJECT_NAME":"STARLINK-4052","OBJECT_ID":"2022-083AR","EPOCH":"2023-09-07T09:09:07.226496","MEAN_MOTION":15.08835143,"ECCENTRICITY":0.0001375,"INCLINATION":53.2163,"RA_OF_ASC_NODE":278.369,"ARG_OF_PERICENTER":94.5564,"MEAN_ANOMALY":265.5585,"EPHEMERIS_TYPE":0,"CLASSIFICATION_TYPE":"U","NORAD_CAT_ID":53171,"ELEMENT_SET_NO":999,"REV_AT_EPOCH":6374,"BSTAR":-2.8121e-5,"MEAN_MOTION_DOT":-7.35e-6,"MEAN_MOTION_DDOT":0}]
