STARLINK-4088           
1 53155U 22083Z   23250.87539511  .00001204  00000+0  93685-4 0  9996
2 53155  53.2176 306.3945 0001328  87.9733 272.1412 15.08848325 64032
STARLINK-4087           
1 53156U 22083AA  23251.12930762  .00000115  00000+0  25290-4 0  9996
2 53156  53.2166 305.1260 0001228  85.7640 274.3493 15.08837485 64073
STARLINK-4093           
1 53157U 22083AB  23250.53684068  .00000856  00000+0  71857-4 0  9998
2 53157  53.2179 307.9123 0001262  91.4198 268.6939 15.08840996 63358
STARLINK-4054           
1 53158U 22083AC  23250.68035956  .00000064  00000+0  22125-4 0  9996
2 53158  53.2157 307.2703 0001424  98.4189 261.6965 15.08841871 63376
STARLINK-4111           
1 53159U 22083AD  23250.52947453  .00000160  00000+0  28151-4 0  9996
2 53159  53.2158 307.9475 0001530  71.2889 288.8269 15.08842812 63986
STARLINK-4096           
1 53160U 22083AE  23250.60676052  .00000431  00000+0  45167-4 0  9998
2 53160  53.2159 307.5996 0001085  98.8871 261.2244 15.08841644 63366
STARLINK-4055           
1 53161U 22083AF  23250.58467833 -.00000413  00000+0 -78898-5 0  9991
2 53161  53.2167 307.6995 0001310  95.2222 264.8920 15.08839724 63364
STARLINK-4114           
1 53162U 22083AG  23251.13027746  .00003117  00000+0  21386-3 0  9999
2 53162  53.2162 305.2581 0001437  86.8514 273.2643 15.08836994 64076
STARLINK-4104           
1 53163U 22083AH  23251.25002315 -.00035335  00000+0 -23123-2 0  9997
2 53163  53.2166 304.7346 0001258  80.2074 317.7616 15.07234465 64094
STARLINK-4116           
1 53164U 22083AJ  23250.38963472 -.00001089  00000+0 -50354-4 0  9998
2 53164  53.2169 308.5718 0001419 100.8350 259.2802 15.08836853 63331
STARLINK-4090           
1 53165U 22083AK  23250.50739905 -.00000873  00000+0 -36742-4 0  9990
2 53165  53.2163 308.0459 0001333  99.3124 260.8019 15.08840019 63358
STARLINK-4110           
1 53166U 22083AL  23250.58099499 -.00000033  00000+0  16022-4 0  9992
2 53166  53.2167 307.7157 0001379  83.6094 276.5055 15.08841145 63362
STARLINK-3683           
1 53167U 22083AM  23250.52533495  .00001950  00000+0  14055-3 0  9997
2 53167  53.2152 292.9540 0001403  84.3230 275.7922 15.08843640 63553
STARLINK-4105           
1 53168U 22083AN  23250.64356476  .00005459  00000+0  36095-3 0  9999
2 53168  53.2178 307.4350 0001494  91.2267 268.8897 15.08826117 63374
STARLINK-4117           
1 53169U 22083AP  23251.09946951  .00018503  00000+0  11802-2 0  9995
2 53169  53.2188 290.6489 0001932  97.9198 262.2014 15.08758683 64276
STARLINK-4095           
1 53170U 22083AQ  23250.53912961  .00000458  00000+0  46866-4 0  9999
2 53170  53.2184 302.8551 0001497  92.0280 268.0884 15.08846277 63426
STARLINK-4052           
1 53171U 22083AR  23250.38133364 -.00000735  00000+0 -28121-4 0  9999
2 53171  53.2163 278.3690 0001375  94.5564 265.5585 15.08835143 63747
